IRIDIUM 159             
1 43578U 18061K   24321.80197221  .00000017  00000+0 -88295-6 0  9991
2 43578  86.3923 297.9860 0002127  89.5658 270.5781 14.34216416330620
IRIDIUM 180             
1 43922U 19002A   24321.31309769  .00000559  00000+0  19242-3 0  9991
2 43922  86.3992 235.0414 0002228  83.9243 276.2206 14.34213525306207
IRIDIUM 176             
1 43923U 19002B   24322.72487781  .00002065  00000+0  32345-3 0  9992
2 43923  86.6122 234.4609 0002559  94.5771 265.5738 14.72260066314435
IRIDIUM 168             
1 43924U 19002C   24322.70211847  .00000630  00000+0  21774-3 0  9999
2 43924  86.3996 234.5223 0002218  83.4627 276.6822 14.34216341306347
IRIDIUM 173             
1 43925U 19002D   24321.22429713  .00000640  00000+0  22131-3 0  9998
2 43925  86.3991 235.0521 0002193  82.4487 277.6958 14.34218833306119
IRIDIUM 169             
1 43926U 19002E   24322.14804324  .00000640  00000+0  20260-3 0  9997
2 43926  86.4205 266.2914 0004146  81.4530 278.7138 14.38603553307269
IRIDIUM 172             
1 43927U 19002F   24322.68309285  .00000599  00000+0  20695-3 0  9998
2 43927  86.3991 234.4490 0002172  85.4589 274.6855 14.34219632306337
IRIDIUM 175             
1 43928U 19002G   24321.42806945  .00001853  00000+0  28978-3 0  9991
2 43928  86.1551 199.5970 0002938  61.6790 298.4723 14.72258241314239
